{
  "type": "FeatureCollection",
  "features": [
    {
      "type": "Feature",
      "properties": {
        "norad_id": 66604,
        "name": "STARLINK-35977",
        "group": "last-30-days",
        "lat": -42.911305725989614,
        "lon": 127.09636386372073,
        "alt_km": 398.46988718454395,
        "timestamp": "2025-12-09T05:43:19.510198+00:00",
        "meta_object_name": "STARLINK-35977",
        "meta_object_id": "2025-270S",
        "meta_epoch": "2025-12-08T20:00:01.999008",
        "meta_mean_motion": 15.58881681,
        "meta_eccentricity": 0.0001168,
        "meta_inclination": 42.9987,
        "meta_ra_of_asc_node": 215.5753,
        "meta_arg_of_pericenter": 258.8355,
        "meta_mean_anomaly": 259.4291,
        "meta_ephemeris_type": 0,
        "meta_classification_type": "U",
        "meta_norad_cat_id": 66604,
        "meta_element_set_no": 999,
        "meta_rev_at_epoch": 377,
        "meta_bstar": -0.029355,
        "meta_mean_motion_dot": -0.02083094,
        "meta_mean_motion_ddot": 0,
        "tle_line1": "1 66604U 25270S   25342.83335647 -.02083094  00000+0 -29355-1 0  9995",
        "tle_line2": "2 66604  42.9987 215.5753 0001168 258.8355 259.4291 15.58881681  3773"
      },
      "geometry": {
        "type": "Point",
        "coordinates": [
          127.09636386372073,
          -42.911305725989614
        ]
      }
    },
    {
      "type": "Feature",
      "properties": {
        "norad_id": 66605,
        "name": "STARLINK-36052",
        "group": "last-30-days",
        "lat": -42.792685187251436,
        "lon": 129.69782745041474,
        "alt_km": 398.44633377197624,
        "timestamp": "2025-12-09T05:43:19.510208+00:00",
        "meta_object_name": "STARLINK-36052",
        "meta_object_id": "2025-270T",
        "meta_epoch": "2025-12-08T20:00:01.999008",
        "meta_mean_motion": 15.58884622,
        "meta_eccentricity": 0.0001171,
        "meta_inclination": 42.9988,
        "meta_ra_of_asc_node": 215.571,
        "meta_arg_of_pericenter": 265.1453,
        "meta_mean_anomaly": 255.0385,
        "meta_ephemeris_type": 0,
        "meta_classification_type": "U",
        "meta_norad_cat_id": 66605,
        "meta_element_set_no": 999,
        "meta_rev_at_epoch": 377,
        "meta_bstar": -0.029459,
        "meta_mean_motion_dot": -0.02089894,
        "meta_mean_motion_ddot": 0,
        "tle_line1": "1 66605U 25270T   25342.83335647 -.02089894  00000+0 -29459-1 0  9995",
        "tle_line2": "2 66605  42.9988 215.5710 0001171 265.1453 255.0385 15.58884622  3776"
      },
      "geometry": {
        "type": "Point",
        "coordinates": [
          129.69782745041474,
          -42.792685187251436
        ]
      }
    },
    {
      "type": "Feature",
      "properties": {
        "norad_id": 66606,
        "name": "STARLINK-36063",
        "group": "last-30-days",
        "lat": -42.3793716840572,
        "lon": 134.86040947710384,
        "alt_km": 398.4975291592491,
        "timestamp": "2025-12-09T05:43:19.510220+00:00",
        "meta_object_name": "STARLINK-36063",
        "meta_object_id": "2025-270U",
        "meta_epoch": "2025-12-08T20:00:01.999008",
        "meta_mean_motion": 15.58880328,
        "meta_eccentricity": 0.000117,
        "meta_inclination": 42.999,
        "meta_ra_of_asc_node": 215.5609,
        "meta_arg_of_pericenter": 256.7987,
        "meta_mean_anomaly": 267.2178,
        "meta_ephemeris_type": 0,
        "meta_classification_type": "U",
        "meta_norad_cat_id": 66606,
        "meta_element_set_no": 999,
        "meta_rev_at_epoch": 377,
        "meta_bstar": -0.029329,
        "meta_mean_motion_dot": -0.0208135,
        "meta_mean_motion_ddot": 0,
        "tle_line1": "1 66606U 25270U   25342.83335647 -.02081350  00000+0 -29329-1 0  9991",
        "tle_line2": "2 66606  42.9990 215.5609 0001170 256.7987 267.2178 15.58880328  3778"
      },
      "geometry": {
        "type": "Point",
        "coordinates": [
          134.86040947710384,
          -42.3793716840572
        ]
      }
    },
    {
      "type": "Feature",
      "properties": {
        "norad_id": 66607,
        "name": "STARLINK-35993",
        "group": "last-30-days",
        "lat": -42.615358671450586,
        "lon": 132.2876068613627,
        "alt_km": 398.4579226202259,
        "timestamp": "2025-12-09T05:43:19.510230+00:00",
        "meta_object_name": "STARLINK-35993",
        "meta_object_id": "2025-270V",
        "meta_epoch": "2025-12-08T20:00:01.999008",
        "meta_mean_motion": 15.58883849,
        "meta_eccentricity": 0.0001156,
        "meta_inclination": 42.9991,
        "meta_ra_of_asc_node": 215.5663,
        "meta_arg_of_pericenter": 264.5952,
        "meta_mean_anomaly": 257.5057,
        "meta_ephemeris_type": 0,
        "meta_classification_type": "U",
        "meta_norad_cat_id": 66607,
        "meta_element_set_no": 999,
        "meta_rev_at_epoch": 367,
        "meta_bstar": -0.029434,
        "meta_mean_motion_dot": -0.02088196,
        "meta_mean_motion_ddot": 0,
        "tle_line1": "1 66607U 25270V   25342.83335647 -.02088196  00000+0 -29434-1 0  9994",
        "tle_line2": "2 66607  42.9991 215.5663 0001156 264.5952 257.5057 15.58883849  3671"
      },
      "geometry": {
        "type": "Point",
        "coordinates": [
          132.2876068613627,
          -42.615358671450586
        ]
      }
    },
    {
      "type": "Feature",
      "properties": {
        "norad_id": 66608,
        "name": "STARLINK-36036",
        "group": "last-30-days",
        "lat": -42.086571252070684,
        "lon": 137.41084053269407,
        "alt_km": 398.4864340781942,
        "timestamp": "2025-12-09T05:43:19.510240+00:00",
        "meta_object_name": "STARLINK-36036",
        "meta_object_id": "2025-270W",
        "meta_epoch": "2025-12-08T20:00:01.999008",
        "meta_mean_motion": 15.5888014,
        "meta_eccentricity": 0.0001169,
        "meta_inclination": 42.9992,
        "meta_ra_of_asc_node": 215.5562,
        "meta_arg_of_pericenter": 257.9595,
        "meta_mean_anomaly": 267.9735,
        "meta_ephemeris_type": 0,
        "meta_classification_type": "U",
        "meta_norad_cat_id": 66608,
        "meta_element_set_no": 999,
        "meta_rev_at_epoch": 361,
        "meta_bstar": -0.029306,
        "meta_mean_motion_dot": -0.02079886,
        "meta_mean_motion_ddot": 0,
        "tle_line1": "1 66608U 25270W   25342.83335647 -.02079886  00000+0 -29306-1 0  9999",
        "tle_line2": "2 66608  42.9992 215.5562 0001169 257.9595 267.9735 15.58880140  3617"
      },
      "geometry": {
        "type": "Point",
        "coordinates": [
          137.41084053269407,
          -42.086571252070684
        ]
      }
    },
    {
      "type": "Feature",
      "properties": {
        "norad_id": 66609,
        "name": "STARLINK-36034",
        "group": "last-30-days",
        "lat": -41.7374821212836,
        "lon": 139.93590441334663,
        "alt_km": 398.47733951181544,
        "timestamp": "2025-12-09T05:43:19.510252+00:00",
        "meta_object_name": "STARLINK-36034",
        "meta_object_id": "2025-270X",
        "meta_epoch": "2025-12-08T20:00:01.999008",
        "meta_mean_motion": 15.58888022,
        "meta_eccentricity": 0.0001136,
        "meta_inclination": 42.9992,
        "meta_ra_of_asc_node": 215.5521,
        "meta_arg_of_pericenter": 262.7936,
        "meta_mean_anomaly": 265.0552,
        "meta_ephemeris_type": 0,
        "meta_classification_type": "U",
        "meta_norad_cat_id": 66609,
        "meta_element_set_no": 999,
        "meta_rev_at_epoch": 361,
        "meta_bstar": -0.029498,
        "meta_mean_motion_dot": -0.02092542,
        "meta_mean_motion_ddot": 0,
        "tle_line1": "1 66609U 25270X   25342.83335647 -.02092542  00000+0 -29498-1 0  9996",
        "tle_line2": "2 66609  42.9992 215.5521 0001136 262.7936 265.0552 15.58888022  3613"
      },
      "geometry": {
        "type": "Point",
        "coordinates": [
          139.93590441334663,
          -41.7374821212836
        ]
      }
    },
    {
      "type": "Feature",
      "properties": {
        "norad_id": 66610,
        "name": "STARLINK-35680",
        "group": "last-30-days",
        "lat": -41.33379061137423,
        "lon": 142.42921013179546,
        "alt_km": 398.42768836520554,
        "timestamp": "2025-12-09T05:43:19.510263+00:00",
        "meta_object_name": "STARLINK-35680",
        "meta_object_id": "2025-270Y",
        "meta_epoch": "2025-12-08T20:00:01.999008",
        "meta_mean_motion": 15.5888129,
        "meta_eccentricity": 0.0001147,
        "meta_inclination": 42.9992,
        "meta_ra_of_asc_node": 215.547,
        "meta_arg_of_pericenter": 268.323,
        "meta_mean_anomaly": 261.4487,
        "meta_ephemeris_type": 0,
        "meta_classification_type": "U",
        "meta_norad_cat_id": 66610,
        "meta_element_set_no": 999,
        "meta_rev_at_epoch": 388,
        "meta_bstar": -0.029407,
        "meta_mean_motion_dot": -0.02086349,
        "meta_mean_motion_ddot": 0,
        "tle_line1": "1 66610U 25270Y   25342.83335647 -.02086349  00000+0 -29407-1 0  9996",
        "tle_line2": "2 66610  42.9992 215.5470 0001147 268.3230 261.4487 15.58881290  3885"
      },
      "geometry": {
        "type": "Point",
        "coordinates": [
          142.42921013179546,
          -41.33379061137423
        ]
      }
    }
  ]
}